start=new Date('2021-11-20T00:00:00.000Z').valueOf();
sats=[{"RCS_SIZE":"LARGE","DECAY_DATE":null,"PERIAPSIS":"546.106","TLE_LINE2":"2 46064  53.0546 330.0419 0001599  66.1507 293.9649 15.06400035 72212","EPOCH":"2021-11-19T11:31:33.701088","MEAN_MOTION_DDOT":"0.0000000000000","MEAN_MOTION":"15.06400035","REF_FRAME":"TEME","MEAN_ELEMENT_THEORY":"SGP4","OBJECT_TYPE":"PAYLOAD","GP_ID":"190073225","PERIOD":"95.592","ECCENTRICITY":"0.00015990","OBJECT_NAME":"STARLINK-1583","APOAPSIS":"548.321","CLASSIFICATION_TYPE":"U","MEAN_MOTION_DOT":"-0.00000206","RA_OF_ASC_NODE":"330.0419","SEMIMAJOR_AXIS":"6925.348","NORAD_CAT_ID":"46064","TIME_SYSTEM":"UTC","ELEMENT_SET_NO":"999","CENTER_NAME":"EARTH","INCLINATION":"53.0546","TLE_LINE1":"1 46064U 20055AP  21323.48025117 -.00000206  00000-0  50531-5 0  9999","SITE":"AFETR","FILE":"3219209","REV_AT_EPOCH":"7221","ARG_OF_PERICENTER":"66.1507","OBJECT_ID":"2020-055AP","BSTAR":"0.00000505310000","EPHEMERIS_TYPE":"0","LAUNCH_DATE":"2020-08-07","MEAN_ANOMALY":"293.9649","COUNTRY_CODE":"US"},{"RCS_SIZE":"LARGE","DECAY_DATE":null,"TLE_LINE2":"2 46065  53.0511 311.0015 0001625  64.9073 295.2084 15.06384521 72444","PERIAPSIS":"546.136","OBJECT_TYPE":"PAYLOAD","MEAN_MOTION":"15.06384521","MEAN_ELEMENT_THEORY":"SGP4","REF_FRAME":"TEME","MEAN_MOTION_DDOT":"0.0000000000000","EPOCH":"2021-11-19T06:35:37.860864","PERIOD":"95.593","GP_ID":"190073975","ECCENTRICITY":"0.00016250","CLASSIFICATION_TYPE":"U","APOAPSIS":"548.386","OBJECT_NAME":"STARLINK-1515","RA_OF_ASC_NODE":"311.0015","MEAN_MOTION_DOT":"-0.00000460","NORAD_CAT_ID":"46065","SEMIMAJOR_AXIS":"6925.396","ELEMENT_SET_NO":"999","TIME_SYSTEM":"UTC","CENTER_NAME":"EARTH","SITE":"AFETR","TLE_LINE1":"1 46065U 20055AQ  21323.27474376 -.00000460  00000-0 -11990-4 0  9990","INCLINATION":"53.0511","OBJECT_ID":"2020-055AQ","ARG_OF_PERICENTER":"64.9073","REV_AT_EPOCH":"7244","FILE":"3219209","MEAN_ANOMALY":"295.2084","LAUNCH_DATE":"2020-08-07","COUNTRY_CODE":"US","EPHEMERIS_TYPE":"0","BSTAR":"-0.00001199000000"},{"TLE_LINE2":"2 46066  53.0553 310.6592 0001728  66.7882 293.3289 15.06389559 72462","PERIAPSIS":"546.049","RCS_SIZE":"LARGE","DECAY_DATE":null,"ECCENTRICITY":"0.00017280","OBJECT_TYPE":"PAYLOAD","MEAN_MOTION":"15.06389559","REF_FRAME":"TEME","MEAN_ELEMENT_THEORY":"SGP4","MEAN_MOTION_DDOT":"0.0000000000000","EPOCH":"2021-11-19T08:17:50.741952","PERIOD":"95.593","GP_ID":"190072722","NORAD_CAT_ID":"46066","SEMIMAJOR_AXIS":"6925.381","ELEMENT_SET_NO":"999","TIME_SYSTEM":"UTC","CLASSIFICATION_TYPE":"U","APOAPSIS":"548.442","OBJECT_NAME":"STARLINK-1525","RA_OF_ASC_NODE":"310.6592","MEAN_MOTION_DOT":"-0.00000137","OBJECT_ID":"2020-055AR","ARG_OF_PERICENTER":"66.7882","REV_AT_EPOCH":"7246","FILE":"3219209","LAUNCH_DATE":"2020-08-07","MEAN_ANOMALY":"293.3289","COUNTRY_CODE":"US","EPHEMERIS_TYPE":"0","BSTAR":"0.00000968980000","CENTER_NAME":"EARTH","SITE":"AFETR","TLE_LINE1":"1 46066U 20055AR  21323.34572618 -.00000137  00000-0  96898-5 0  9998","INCLINATION":"53.0553"},{"OBJECT_TYPE":"PAYLOAD","REF_FRAME":"TEME","MEAN_MOTION":"15.06400820","MEAN_ELEMENT_THEORY":"SGP4","MEAN_MOTION_DDOT":"0.0000000000000","EPOCH":"2021-11-19T08:23:08.138400","PERIOD":"95.592","GP_ID":"190072973","ECCENTRICITY":"0.00016620","RCS_SIZE":"LARGE","DECAY_DATE":null,"TLE_LINE2":"2 46067  53.0547 310.6454 0001662  68.6594 291.4572 15.06400820 72471","PERIAPSIS":"546.060","CENTER_NAME":"EARTH","SITE":"AFETR","TLE_LINE1":"1 46067U 20055AS  21323.34939975  .00000073  00000-0  23823-4 0  9997","INCLINATION":"53.0547","OBJECT_ID":"2020-055AS","ARG_OF_PERICENTER":"68.6594","REV_AT_EPOCH":"7247","FILE":"3219209","MEAN_ANOMALY":"291.4572","LAUNCH_DATE":"2020-08-07","COUNTRY_CODE":"US","BSTAR":"0.00002382300000","EPHEMERIS_TYPE":"0","APOAPSIS":"548.362","CLASSIFICATION_TYPE":"U","OBJECT_NAME":"STARLINK-1529","RA_OF_ASC_NODE":"310.6454","MEAN_MOTION_DOT":"0.00000073","NORAD_CAT_ID":"46067","SEMIMAJOR_AXIS":"6925.346","ELEMENT_SET_NO":"999","TIME_SYSTEM":"UTC"},{"TLE_LINE2":"2 46068  53.0532 310.2869 0001651  63.3318 296.7840 15.06398611 72487","PERIAPSIS":"546.074","RCS_SIZE":"LARGE","DECAY_DATE":null,"ECCENTRICITY":"0.00016510","MEAN_MOTION_DDOT":"0.0000000000000","EPOCH":"2021-11-19T10:14:36.405600","OBJECT_TYPE":"PAYLOAD","MEAN_MOTION":"15.06398611","MEAN_ELEMENT_THEORY":"SGP4","REF_FRAME":"TEME","GP_ID":"190073725","PERIOD":"95.592","NORAD_CAT_ID":"46068","SEMIMAJOR_AXIS":"6925.353","ELEMENT_SET_NO":"999","TIME_SYSTEM":"UTC","OBJECT_NAME":"STARLINK-1532","CLASSIFICATION_TYPE":"U","APOAPSIS":"548.361","RA_OF_ASC_NODE":"310.2869","MEAN_MOTION_DOT":"-0.00000187","REV_AT_EPOCH":"7248","FILE":"3219209","OBJECT_ID":"2020-055AT","ARG_OF_PERICENTER":"63.3318","LAUNCH_DATE":"2020-08-07","COUNTRY_CODE":"US","MEAN_ANOMALY":"296.7840","BSTAR":"0.00000635630000","EPHEMERIS_TYPE":"0","CENTER_NAME":"EARTH","INCLINATION":"53.0532","SITE":"AFETR","TLE_LINE1":"1 46068U 20055AT  21323.42681025 -.00000187  00000-0  63563-5 0  9990"},{"MEAN_MOTION":"15.06388292","REF_FRAME":"TEME","MEAN_ELEMENT_THEORY":"SGP4","OBJECT_TYPE":"PAYLOAD","EPOCH":"2021-11-19T10:35:52.919808","MEAN_MOTION_DDOT":"0.0000000000000","PERIOD":"95.593","GP_ID":"190073476","ECCENTRICITY":"0.00017170","RCS_SIZE":"LARGE","DECAY_DATE":null,"PERIAPSIS":"546.060","TLE_LINE2":"2 46069  53.0533 310.2258 0001717  59.1440 300.9717 15.06388292 72499","CENTER_NAME":"EARTH","TLE_LINE1":"1 46069U 20055AU  21323.44158472  .00005423  00000-0  38281-3 0  9992","SITE":"AFETR","INCLINATION":"53.0533","ARG_OF_PERICENTER":"59.1440","OBJECT_ID":"2020-055AU","FILE":"3219209","REV_AT_EPOCH":"7249","EPHEMERIS_TYPE":"0","BSTAR":"0.00038281000000","LAUNCH_DATE":"2020-08-07","COUNTRY_CODE":"US","MEAN_ANOMALY":"300.9717","APOAPSIS":"548.439","CLASSIFICATION_TYPE":"U","OBJECT_NAME":"STARLINK-1533","MEAN_MOTION_DOT":"0.00005423","RA_OF_ASC_NODE":"310.2258","SEMIMAJOR_AXIS":"6925.384","NORAD_CAT_ID":"46069","TIME_SYSTEM":"UTC","ELEMENT_SET_NO":"999"},{"TIME_SYSTEM":"UTC","ELEMENT_SET_NO":"999","NORAD_CAT_ID":"46070","SEMIMAJOR_AXIS":"6925.387","MEAN_MOTION_DOT":"-0.00000406","RA_OF_ASC_NODE":"311.0518","CLASSIFICATION_TYPE":"U","APOAPSIS":"548.311","OBJECT_NAME":"STARLINK-1536","BSTAR":"-0.00000836850000","EPHEMERIS_TYPE":"0","COUNTRY_CODE":"US","LAUNCH_DATE":"2020-08-07","MEAN_ANOMALY":"295.1473","ARG_OF_PERICENTER":"64.9674","OBJECT_ID":"2020-055AV","FILE":"3219209","REV_AT_EPOCH":"7246","TLE_LINE1":"1 46070U 20055AV  21323.25725917 -.00000406  00000-0 -83685-5 0  9995","SITE":"AFETR","INCLINATION":"53.0541","CENTER_NAME":"EARTH","PERIAPSIS":"546.192","TLE_LINE2":"2 46070  53.0541 311.0518 0001530  64.9674 295.1473 15.06387537 72466","DECAY_DATE":null,"RCS_SIZE":"LARGE","ECCENTRICITY":"0.00015300","PERIOD":"95.593","GP_ID":"190072223","MEAN_MOTION":"15.06387537","MEAN_ELEMENT_THEORY":"SGP4","REF_FRAME":"TEME","OBJECT_TYPE":"PAYLOAD","EPOCH":"2021-11-19T06:10:27.192288","MEAN_MOTION_DDOT":"0.0000000000000"},{"MEAN_MOTION":"15.06388095","MEAN_ELEMENT_THEORY":"SGP4","REF_FRAME":"TEME","OBJECT_TYPE":"PAYLOAD","EPOCH":"2021-11-19T09:48:04.526208","MEAN_MOTION_DDOT":"0.0000000000000","PERIOD":"95.593","GP_ID":"190072474","ECCENTRICITY":"0.00016810","RCS_SIZE":"LARGE","DECAY_DATE":null,"TLE_LINE2":"2 46071  53.0536 310.3846 0001681  70.6191 289.4980 15.06388095 72483","PERIAPSIS":"546.086","CENTER_NAME":"EARTH","TLE_LINE1":"1 46071U 20055AW  21323.40838572 -.00000177  00000-0  70082-5 0  9996","SITE":"AFETR","INCLINATION":"53.0536","ARG_OF_PERICENTER":"70.6191","OBJECT_ID":"2020-055AW","FILE":"3219209","REV_AT_EPOCH":"7248","BSTAR":"0.00000700820000","EPHEMERIS_TYPE":"0","LAUNCH_DATE":"2020-08-07","COUNTRY_CODE":"US","MEAN_ANOMALY":"289.4980","CLASSIFICATION_TYPE":"U","APOAPSIS":"548.414","OBJECT_NAME":"STARLINK-1538","MEAN_MOTION_DOT":"-0.00000177","RA_OF_ASC_NODE":"310.3846","SEMIMAJOR_AXIS":"6925.385","NORAD_CAT_ID":"46071","TIME_SYSTEM":"UTC","ELEMENT_SET_NO":"999"},{"SEMIMAJOR_AXIS":"6925.373","NORAD_CAT_ID":"46072","TIME_SYSTEM":"UTC","ELEMENT_SET_NO":"999","OBJECT_NAME":"STARLINK-1539","APOAPSIS":"548.369","CLASSIFICATION_TYPE":"U","MEAN_MOTION_DOT":"-0.00000350","RA_OF_ASC_NODE":"311.1445","FILE":"3219209","REV_AT_EPOCH":"7244","ARG_OF_PERICENTER":"61.6108","OBJECT_ID":"2020-055AX","EPHEMERIS_TYPE":"0","BSTAR":"-0.00000461210000","LAUNCH_DATE":"2020-08-07","COUNTRY_CODE":"US","MEAN_ANOMALY":"298.5046","CENTER_NAME":"EARTH","INCLINATION":"53.0549","TLE_LINE1":"1 46072U 20055AX  21323.23420070 -.00000350  00000-0 -46121-5 0  9999","SITE":"AFETR","PERIAPSIS":"546.107","TLE_LINE2":"2 46072  53.0549 311.1445 0001633  61.6108 298.5046 15.06392058 72441","RCS_SIZE":"LARGE","DECAY_DATE":null,"ECCENTRICITY":"0.00016330","EPOCH":"2021-11-19T05:37:14.940480","MEAN_MOTION_DDOT":"0.0000000000000","MEAN_MOTION":"15.06392058","MEAN_ELEMENT_THEORY":"SGP4","REF_FRAME":"TEME","OBJECT_TYPE":"PAYLOAD","GP_ID":"190073226","PERIOD":"95.593"},{"RCS_SIZE":"LARGE","DECAY_DATE":null,"TLE_LINE2":"2 46073  53.0551 310.5011 0001674  62.7159 297.4000 15.06390679 72478","PERIAPSIS":"546.083","EPOCH":"2021-11-19T09:10:55.040736","MEAN_MOTION_DDOT":"0.0000000000000","MEAN_ELEMENT_THEORY":"SGP4","MEAN_MOTION":"15.06390679","REF_FRAME":"TEME","OBJECT_TYPE":"PAYLOAD","GP_ID":"190073976","PERIOD":"95.593","ECCENTRICITY":"0.00016740","OBJECT_NAME":"STARLINK-1542","CLASSIFICATION_TYPE":"U","APOAPSIS":"548.401","MEAN_MOTION_DOT":"-0.00000393","RA_OF_ASC_NODE":"310.5011","SEMIMAJOR_AXIS":"6925.377","NORAD_CAT_ID":"46073","TIME_SYSTEM":"UTC","ELEMENT_SET_NO":"999","CENTER_NAME":"EARTH","INCLINATION":"53.0551","TLE_LINE1":"1 46073U 20055AY  21323.38258149 -.00000393  00000-0 -74684-5 0  9994","SITE":"AFETR","FILE":"3219209","REV_AT_EPOCH":"7247","ARG_OF_PERICENTER":"62.7159","OBJECT_ID":"2020-055AY","EPHEMERIS_TYPE":"0","BSTAR":"-0.00000746840000","COUNTRY_CODE":"US","LAUNCH_DATE":"2020-08-07","MEAN_ANOMALY":"297.4000"}];
